[{"OBJECT_NAME":"ONEWEB-0419","OBJECT_ID":"2021-132AB","EPOCH":"2025-12-13T07:25:22.316448","MEAN_MOTION":13.18686508,"ECCENTRICITY":0.00014254,"INCLINATION":87.9182,"RA_OF_ASC_NODE":12.3682,"ARG_OF_PERICENTER":95.5953,"MEAN_ANOMALY":264.5342,"EPHEMERIS_TYPE":0,"CLASSIFICATION_TYPE":"U","NORAD_CAT_ID":50494,"ELEMENT_SET_NO":999,"REV_AT_EPOCH":19708,"BSTAR":9.7494004e-5,"MEAN_MOTION_DOT":5.1e-7,"MEAN_MOTION_DDOT":0},{"OBJECT_NAME":"ONEWEB-0420","OBJECT_ID":"2021-132AC","EPOCH":"2025-12-13T02:56:57.286464","MEAN_MOTION":13.18684645,"ECCENTRICITY":0.00018791,"INCLINATION":87.9185,"RA_OF_ASC_NODE":12.417,"ARG_OF_PERICENTER":89.7845,"MEAN_ANOMALY":270.3503,"EPHEMERIS_TYPE":0,"CLASSIFICATION_TYPE":"U","NORAD_CAT_ID":50495,"ELEMENT_SET_NO":999,"REV_AT_EPOCH":19705,"BSTAR":-4.1524861e-5,"MEAN_MOTION_DOT":-3.0e-8,"MEAN_MOTION_DDOT":0},{"OBJECT_NAME":"ONEWEB-0421","OBJECT_ID":"2021-132AD","EPOCH":"2025-12-13T02:47:27.858624","MEAN_MOTION":13.18684533,"ECCENTRICITY":0.00020428,"INCLINATION":87.9184,"RA_OF_ASC_NODE":12.4113,"ARG_OF_PERICENTER":99.6399,"MEAN_ANOMALY":260.4964,"EPHEMERIS_TYPE":0,"CLASSIFICATION_TYPE":"U","NORAD_CAT_ID":50496,"ELEMENT_SET_NO":999,"REV_AT_EPOCH":19709,"BSTAR":0.00017326918,"MEAN_MOTION_DOT":8.1e-7,"MEAN_MOTION_DDOT":0},{"OBJECT_NAME":"ONEWEB-0424","OBJECT_ID":"2021-132AE","EPOCH":"2025-12-13T07:18:15.082272","MEAN_MOTION":13.18686614,"ECCENTRICITY":0.00013856,"INCLINATION":87.9182,"RA_OF_ASC_NODE":12.3694,"ARG_OF_PERICENTER":88.9074,"MEAN_ANOMALY":271.2217,"EPHEMERIS_TYPE":0,"CLASSIFICATION_TYPE":"U","NORAD_CAT_ID":50497,"ELEMENT_SET_NO":999,"REV_AT_EPOCH":19714,"BSTAR":-8.848119e-5,"MEAN_MOTION_DOT":-2.2e-7,"MEAN_MOTION_DDOT":0},{"OBJECT_NAME":"ONEWEB-0426","OBJECT_ID":"2021-132AF","EPOCH":"2025-12-13T08:10:29.592192","MEAN_MOTION":13.186861,"ECCENTRICITY":0.0002101,"INCLINATION":87.9183,"RA_OF_ASC_NODE":12.3534,"ARG_OF_PERICENTER":113.155,"MEAN_ANOMALY":246.9804,"EPHEMERIS_TYPE":0,"CLASSIFICATION_TYPE":"U","NORAD_CAT_ID":50498,"ELEMENT_SET_NO":999,"REV_AT_EPOCH":19709,"BSTAR":1.8670009e-5,"MEAN_MOTION_DOT":2.0e-7,"MEAN_MOTION_DDOT":0},{"OBJECT_NAME":"ONEWEB-0427","OBJECT_ID":"2021-132AG","EPOCH":"2025-12-13T07:15:52.243200","MEAN_MOTION":13.18685184,"ECCENTRICITY":0.00016212,"INCLINATION":87.9182,"RA_OF_ASC_NODE":12.3488,"ARG_OF_PERICENTER":100.9443,"MEAN_ANOMALY":259.1871,"EPHEMERIS_TYPE":0,"CLASSIFICATION_TYPE":"U","NORAD_CAT_ID":50499,"ELEMENT_SET_NO":999,"REV_AT_EPOCH":19711,"BSTAR":4.13597e-6,"MEAN_MOTION_DOT":1.5e-7,"MEAN_MOTION_DDOT":0},{"OBJECT_NAME":"ONEWEB-0429","OBJECT_ID":"2021-132AH","EPOCH":"2025-12-13T03:18:20.615904","MEAN_MOTION":13.18686171,"ECCENTRICITY":0.00018264,"INCLINATION":87.9183,"RA_OF_ASC_NODE":12.4135,"ARG_OF_PERICENTER":89.6565,"MEAN_ANOMALY":270.4776,"EPHEMERIS_TYPE":0,"CLASSIFICATION_TYPE":"U","NORAD_CAT_ID":50500,"ELEMENT_SET_NO":999,"REV_AT_EPOCH":19706,"BSTAR":0.00016517811,"MEAN_MOTION_DOT":7.8e-7,"MEAN_MOTION_DDOT":0},{"OBJECT_NAME":"ONEWEB-0430","OBJECT_ID":"2021-132AJ","EPOCH":"2025-12-13T03:01:42.713184","MEAN_MOTION":13.1868641,"ECCENTRICITY":0.00016355,"INCLINATION":87.9186,"RA_OF_ASC_NODE":12.4113,"ARG_OF_PERICENTER":85.9661,"MEAN_ANOMALY":274.1658,"EPHEMERIS_TYPE":0,"CLASSIFICATION_TYPE":"U","NORAD_CAT_ID":50501,"ELEMENT_SET_NO":999,"REV_AT_EPOCH":19710,"BSTAR":0.00015668021,"MEAN_MOTION_DOT":7.5e-7,"MEAN_MOTION_DDOT":0},{"OBJECT_NAME":"ONEWEB-0432","OBJECT_ID":"2021-132AK","EPOCH":"2025-12-13T07:26:12.757632","MEAN_MOTION":13.18677123,"ECCENTRICITY":9.808e-5,"INCLINATION":87.9179,"RA_OF_ASC_NODE":12.3469,"ARG_OF_PERICENTER":114.5688,"MEAN_ANOMALY":245.5546,"EPHEMERIS_TYPE":0,"CLASSIFICATION_TYPE":"U","NORAD_CAT_ID":50502,"ELEMENT_SET_NO":999,"REV_AT_EPOCH":19708,"BSTAR":-6.3982994e-5,"MEAN_MOTION_DOT":-1.2e-7,"MEAN_MOTION_DDOT":0},{"OBJECT_NAME":"ONEWEB-0440","OBJECT_ID":"2021-132AL","EPOCH":"2025-12-13T03:30:13.456512","MEAN_MOTION":13.18685192,"ECCENTRICITY":0.00022177,"INCLINATION":87.9183,"RA_OF_ASC_NODE":12.3974,"ARG_OF_PERICENTER":93.799,"MEAN_ANOMALY":266.3395,"EPHEMERIS_TYPE":0,"CLASSIFICATION_TYPE":"U","NORAD_CAT_ID":50503,"ELEMENT_SET_NO":999,"REV_AT_EPOCH":19705,"BSTAR":5.3679638e-5,"MEAN_MOTION_DOT":3.4e-7,"MEAN_MOTION_DDOT":0},{"OBJECT_NAME":"ONEWEB-0450","OBJECT_ID":"2021-132AM","EPOCH":"2025-12-13T03:20:54.345696","MEAN_MOTION":13.1868517,"ECCENTRICITY":0.00018544,"INCLINATION":87.9179,"RA_OF_ASC_NODE":12.4205,"ARG_OF_PERICENTER":86.3977,"MEAN_ANOMALY":273.7367,"EPHEMERIS_TYPE":0,"CLASSIFICATION_TYPE":"U","NORAD_CAT_ID":50504,"ELEMENT_SET_NO":999,"REV_AT_EPOCH":19708,"BSTAR":-0.00045378792,"MEAN_MOTION_DOT":-1.66e-6,"MEAN_MOTION_DDOT":0},{"OBJECT_NAME":"ONEWEB-0410","OBJECT_ID":"2022-012A","EPOCH":"2025-12-13T04:10:04.585152","MEAN_MOTION":13.17647892,"ECCENTRICITY":0.00021235,"INCLINATION":87.9121,"RA_OF_ASC_NODE":42.8302,"ARG_OF_PERICENTER":142.026,"MEAN_ANOMALY":218.1022,"EPHEMERIS_TYPE":0,"CLASSIFICATION_TYPE":"U","NORAD_CAT_ID":51622,"ELEMENT_SET_NO":999,"REV_AT_EPOCH":18920,"BSTAR":6.518261e-5,"MEAN_MOTION_DOT":3.8e-7,"MEAN_MOTION_DDOT":0},{"OBJECT_NAME":"ONEWEB-0411","OBJECT_ID":"2022-012B","EPOCH":"2025-12-13T07:28:39.983232","MEAN_MOTION":13.10371857,"ECCENTRICITY":0.00012871,"INCLINATION":87.8809,"RA_OF_ASC_NODE":73.3212,"ARG_OF_PERICENTER":88.0105,"MEAN_ANOMALY":272.117,"EPHEMERIS_TYPE":0,"CLASSIFICATION_TYPE":"U","NORAD_CAT_ID":51623,"ELEMENT_SET_NO":999,"REV_AT_EPOCH":18494,"BSTAR":0.0021131627,"MEAN_MOTION_DOT":7.5e-6,"MEAN_MOTION_DDOT":0},{"OBJECT_NAME":"ONEWEB-0415","OBJECT_ID":"2022-012C","EPOCH":"2025-12-13T07:23:53.918880","MEAN_MOTION":13.10373183,"ECCENTRICITY":0.00014279,"INCLINATION":87.8809,"RA_OF_ASC_NODE":73.3238,"ARG_OF_PERICENTER":98.3643,"MEAN_ANOMALY":261.7646,"EPHEMERIS_TYPE":0,"CLASSIFICATION_TYPE":"U","NORAD_CAT_ID":51624,"ELEMENT_SET_NO":999,"REV_AT_EPOCH":18494,"BSTAR":0.001836599,"MEAN_MOTION_DOT":6.54e-6,"MEAN_MOTION_DDOT":0},{"OBJECT_NAME":"ONEWEB-0416","OBJECT_ID":"2022-012D","EPOCH":"2025-12-13T05:50:38.833728","MEAN_MOTION":13.10369504,"ECCENTRICITY":0.00012364,"INCLINATION":87.8804,"RA_OF_ASC_NODE":73.3576,"ARG_OF_PERICENTER":107.9925,"MEAN_ANOMALY":252.1337,"EPHEMERIS_TYPE":0,"CLASSIFICATION_TYPE":"U","NORAD_CAT_ID":51625,"ELEMENT_SET_NO":999,"REV_AT_EPOCH":18497,"BSTAR":0.0014823177,"MEAN_MOTION_DOT":5.3e-6,"MEAN_MOTION_DDOT":0},{"OBJECT_NAME":"ONEWEB-0422","OBJECT_ID":"2022-012E","EPOCH":"2025-12-13T04:24:40.040928","MEAN_MOTION":13.17648905,"ECCENTRICITY":0.0002326,"INCLINATION":87.9122,"RA_OF_ASC_NODE":42.832,"ARG_OF_PERICENTER":88.0168,"MEAN_ANOMALY":272.123,"EPHEMERIS_TYPE":0,"CLASSIFICATION_TYPE":"U","NORAD_CAT_ID":51626,"ELEMENT_SET_NO":999,"REV_AT_EPOCH":18931,"BSTAR":0.0001435221,"MEAN_MOTION_DOT":6.9e-7,"MEAN_MOTION_DDOT":0},{"OBJECT_NAME":"ONEWEB-0423","OBJECT_ID":"2022-012F","EPOCH":"2025-12-13T04:14:56.261184","MEAN_MOTION":13.17647923,"ECCENTRICITY":0.00019155,"INCLINATION":87.9119,"RA_OF_ASC_NODE":42.8431,"ARG_OF_PERICENTER":100.3918,"MEAN_ANOMALY":259.743,"EPHEMERIS_TYPE":0,"CLASSIFICATION_TYPE":"U","NORAD_CAT_ID":51627,"ELEMENT_SET_NO":999,"REV_AT_EPOCH":18920,"BSTAR":-1.6749472e-5,"MEAN_MOTION_DOT":6.0e-8,"MEAN_MOTION_DDOT":0}]
