ONEWEB-0419             
1 50494U 21132AB  25347.30928607  .00000051  00000+0  97494-4 0  9999
2 50494  87.9182  12.3682 0001425  95.5953 264.5342 13.18686508197086
ONEWEB-0420             
1 50495U 21132AC  25347.12288526 -.00000003  00000+0 -41525-4 0  9992
2 50495  87.9185  12.4170 0001879  89.7845 270.3503 13.18684645197052
ONEWEB-0421             
1 50496U 21132AD  25347.11629466  .00000081  00000+0  17327-3 0  9990
2 50496  87.9184  12.4113 0002042  99.6399 260.4964 13.18684533197097
ONEWEB-0424             
1 50497U 21132AE  25347.30434123 -.00000022  00000+0 -88481-4 0  9993
2 50497  87.9182  12.3694 0001385  88.9074 271.2217 13.18686614197148
ONEWEB-0426             
1 50498U 21132AF  25347.34062028  .00000020  00000+0  18670-4 0  9998
2 50498  87.9183  12.3534 0002101 113.1550 246.9804 13.18686100197095
ONEWEB-0427             
1 50499U 21132AG  25347.30268800  .00000015  00000+0  41360-5 0  9998
2 50499  87.9182  12.3488 0001621 100.9443 259.1871 13.18685184197118
ONEWEB-0429             
1 50500U 21132AH  25347.13773861  .00000078  00000+0  16518-3 0  9994
2 50500  87.9183  12.4135 0001826  89.6565 270.4776 13.18686171197068
ONEWEB-0430             
1 50501U 21132AJ  25347.12618881  .00000075  00000+0  15668-3 0  9996
2 50501  87.9186  12.4113 0001635  85.9661 274.1658 13.18686410197103
ONEWEB-0432             
1 50502U 21132AK  25347.30986988 -.00000012  00000+0 -63983-4 0  9990
2 50502  87.9179  12.3469 0000980 114.5688 245.5546 13.18677123197085
ONEWEB-0440             
1 50503U 21132AL  25347.14598908  .00000034  00000+0  53680-4 0  9999
2 50503  87.9183  12.3974 0002217  93.7990 266.3395 13.18685192197056
ONEWEB-0450             
1 50504U 21132AM  25347.13951789 -.00000166  00000+0 -45379-3 0  9992
2 50504  87.9179  12.4205 0001854  86.3977 273.7367 13.18685170197089
ONEWEB-0410             
1 51622U 22012A   25347.17366418  .00000038  00000+0  65183-4 0  9997
2 51622  87.9121  42.8302 0002123 142.0260 218.1022 13.17647892189202
ONEWEB-0411             
1 51623U 22012B   25347.31157388  .00000750  00000+0  21132-2 0  9993
2 51623  87.8809  73.3212 0001287  88.0105 272.1170 13.10371857184949
ONEWEB-0415             
1 51624U 22012C   25347.30826295  .00000654  00000+0  18366-2 0  9991
2 51624  87.8809  73.3238 0001427  98.3643 261.7646 13.10373183184941
ONEWEB-0416             
1 51625U 22012D   25347.24350502  .00000530  00000+0  14823-2 0  9995
2 51625  87.8804  73.3576 0001236 107.9925 252.1337 13.10369504184976
ONEWEB-0422             
1 51626U 22012E   25347.18379677  .00000069  00000+0  14352-3 0  9998
2 51626  87.9122  42.8320 0002326  88.0168 272.1230 13.17648905189317
ONEWEB-0423             
1 51627U 22012F   25347.17704006  .00000006  00000+0 -16749-4 0  9991
2 51627  87.9119  42.8431 0001915 100.3918 259.7430 13.17647923189201
